[{"OBJECT_NAME":"ONEWEB-0709","OBJECT_ID":"2023-004AJ","EPOCH":"2026-05-10T05:00:18.201600","MEAN_MOTION":13.11418077,"ECCENTRICITY":0.0001182,"INCLINATION":87.8919,"RA_OF_ASC_NODE":28.6334,"ARG_OF_PERICENTER":54.1268,"MEAN_ANOMALY":305.997,"EPHEMERIS_TYPE":0,"CLASSIFICATION_TYPE":"U","NORAD_CAT_ID":55172,"ELEMENT_SET_NO":999,"REV_AT_EPOCH":16089,"BSTAR":-0.0013947999999999999,"MEAN_MOTION_DOT":-4.82e-06,"MEAN_MOTION_DDOT":0.0},{"OBJECT_NAME":"ONEWEB-0710","OBJECT_ID":"2023-004AK","EPOCH":"2026-05-10T03:50:03.537024","MEAN_MOTION":13.17648379,"ECCENTRICITY":0.0001803,"INCLINATION":87.9169,"RA_OF_ASC_NODE":13.4256,"ARG_OF_PERICENTER":87.3437,"MEAN_ANOMALY":272.7901,"EPHEMERIS_TYPE":0,"CLASSIFICATION_TYPE":"U","NORAD_CAT_ID":55173,"ELEMENT_SET_NO":999,"REV_AT_EPOCH":16257,"BSTAR":-2.3061e-08,"MEAN_MOTION_DOT":1.3e-07,"MEAN_MOTION_DDOT":0.0},{"OBJECT_NAME":"ONEWEB-0711","OBJECT_ID":"2023-004AL","EPOCH":"2026-05-10T04:18:48.868992","MEAN_MOTION":13.11413013,"ECCENTRICITY":0.0001939,"INCLINATION":87.8918,"RA_OF_ASC_NODE":28.6257,"ARG_OF_PERICENTER":102.7163,"MEAN_ANOMALY":257.4182,"EPHEMERIS_TYPE":0,"CLASSIFICATION_TYPE":"U","NORAD_CAT_ID":55174,"ELEMENT_SET_NO":999,"REV_AT_EPOCH":16085,"BSTAR":0.00097221,"MEAN_MOTION_DOT":3.57e-06,"MEAN_MOTION_DDOT":0.0},{"OBJECT_NAME":"ONEWEB-0713","OBJECT_ID":"2023-004AM","EPOCH":"2026-05-10T04:45:38.527776","MEAN_MOTION":13.11415592,"ECCENTRICITY":0.000183,"INCLINATION":87.8926,"RA_OF_ASC_NODE":28.6228,"ARG_OF_PERICENTER":92.6008,"MEAN_ANOMALY":267.5329,"EPHEMERIS_TYPE":0,"CLASSIFICATION_TYPE":"U","NORAD_CAT_ID":55175,"ELEMENT_SET_NO":999,"REV_AT_EPOCH":16084,"BSTAR":-0.0018604000000000001,"MEAN_MOTION_DOT":-6.47e-06,"MEAN_MOTION_DDOT":0.0},{"OBJECT_NAME":"ONEWEB-0715","OBJECT_ID":"2023-004AN","EPOCH":"2026-05-10T04:38:19.252032","MEAN_MOTION":13.1141476,"ECCENTRICITY":0.0001112,"INCLINATION":87.8929,"RA_OF_ASC_NODE":28.6242,"ARG_OF_PERICENTER":75.3941,"MEAN_ANOMALY":284.731,"EPHEMERIS_TYPE":0,"CLASSIFICATION_TYPE":"U","NORAD_CAT_ID":55176,"ELEMENT_SET_NO":999,"REV_AT_EPOCH":16088,"BSTAR":-0.0013987,"MEAN_MOTION_DOT":-4.83e-06,"MEAN_MOTION_DDOT":0.0},{"OBJECT_NAME":"ONEWEB-0716","OBJECT_ID":"2023-004AP","EPOCH":"2026-05-10T03:40:20.285184","MEAN_MOTION":13.17648713,"ECCENTRICITY":0.000196,"INCLINATION":87.9171,"RA_OF_ASC_NODE":13.4289,"ARG_OF_PERICENTER":75.6961,"MEAN_ANOMALY":284.4388,"EPHEMERIS_TYPE":0,"CLASSIFICATION_TYPE":"U","NORAD_CAT_ID":55177,"ELEMENT_SET_NO":999,"REV_AT_EPOCH":16257,"BSTAR":-4.9455e-05,"MEAN_MOTION_DOT":-6e-08,"MEAN_MOTION_DDOT":0.0},{"OBJECT_NAME":"ONEWEB-0717","OBJECT_ID":"2023-004AQ","EPOCH":"2026-05-10T05:05:23.192736","MEAN_MOTION":13.17649877,"ECCENTRICITY":0.0001792,"INCLINATION":87.9181,"RA_OF_ASC_NODE":13.4018,"ARG_OF_PERICENTER":103.6209,"MEAN_ANOMALY":256.5122,"EPHEMERIS_TYPE":0,"CLASSIFICATION_TYPE":"U","NORAD_CAT_ID":55178,"ELEMENT_SET_NO":999,"REV_AT_EPOCH":16263,"BSTAR":4.0217999999999997e-07,"MEAN_MOTION_DOT":1.3e-07,"MEAN_MOTION_DDOT":0.0},{"OBJECT_NAME":"ONEWEB-0719","OBJECT_ID":"2023-004AR","EPOCH":"2026-05-10T03:30:37.093824","MEAN_MOTION":13.17648159,"ECCENTRICITY":0.0002011,"INCLINATION":87.9181,"RA_OF_ASC_NODE":13.3952,"ARG_OF_PERICENTER":79.1873,"MEAN_ANOMALY":280.9485,"EPHEMERIS_TYPE":0,"CLASSIFICATION_TYPE":"U","NORAD_CAT_ID":55179,"ELEMENT_SET_NO":999,"REV_AT_EPOCH":16257,"BSTAR":5.8357000000000004e-05,"MEAN_MOTION_DOT":3.6e-07,"MEAN_MOTION_DDOT":0.0},{"OBJECT_NAME":"ONEWEB-0530","OBJECT_ID":"2023-029A","EPOCH":"2026-05-10T03:16:01.358112","MEAN_MOTION":13.2083846,"ECCENTRICITY":0.0002098,"INCLINATION":87.9145,"RA_OF_ASC_NODE":282.0627,"ARG_OF_PERICENTER":107.9884,"MEAN_ANOMALY":252.1478,"EPHEMERIS_TYPE":0,"CLASSIFICATION_TYPE":"U","NORAD_CAT_ID":55796,"ELEMENT_SET_NO":999,"REV_AT_EPOCH":15612,"BSTAR":0.0016206999999999999,"MEAN_MOTION_DOT":6.73e-06,"MEAN_MOTION_DDOT":0.0},{"OBJECT_NAME":"ONEWEB-0534","OBJECT_ID":"2023-029B","EPOCH":"2026-05-10T02:58:14.103840","MEAN_MOTION":13.20730377,"ECCENTRICITY":0.0001869,"INCLINATION":87.9149,"RA_OF_ASC_NODE":282.0649,"ARG_OF_PERICENTER":93.4993,"MEAN_ANOMALY":266.6354,"EPHEMERIS_TYPE":0,"CLASSIFICATION_TYPE":"U","NORAD_CAT_ID":55797,"ELEMENT_SET_NO":999,"REV_AT_EPOCH":15612,"BSTAR":0.00026969,"MEAN_MOTION_DOT":1.23e-06,"MEAN_MOTION_DDOT":0.0},{"OBJECT_NAME":"ONEWEB-0556","OBJECT_ID":"2023-029C","EPOCH":"2026-05-10T03:07:32.838816","MEAN_MOTION":13.20674219,"ECCENTRICITY":0.0002704,"INCLINATION":87.9146,"RA_OF_ASC_NODE":282.0645,"ARG_OF_PERICENTER":90.5405,"MEAN_ANOMALY":269.6038,"EPHEMERIS_TYPE":0,"CLASSIFICATION_TYPE":"U","NORAD_CAT_ID":55798,"ELEMENT_SET_NO":999,"REV_AT_EPOCH":15612,"BSTAR":-0.00065348,"MEAN_MOTION_DOT":-2.52e-06,"MEAN_MOTION_DDOT":0.0},{"OBJECT_NAME":"ONEWEB-0562","OBJECT_ID":"2023-029D","EPOCH":"2026-05-10T02:48:57.585888","MEAN_MOTION":13.20782615,"ECCENTRICITY":0.0002643,"INCLINATION":87.9146,"RA_OF_ASC_NODE":282.0477,"ARG_OF_PERICENTER":106.0096,"MEAN_ANOMALY":254.1329,"EPHEMERIS_TYPE":0,"CLASSIFICATION_TYPE":"U","NORAD_CAT_ID":55799,"ELEMENT_SET_NO":999,"REV_AT_EPOCH":15612,"BSTAR":0.00012418,"MEAN_MOTION_DOT":6.4e-07,"MEAN_MOTION_DDOT":0.0},{"OBJECT_NAME":"ONEWEB-0563","OBJECT_ID":"2023-029E","EPOCH":"2026-05-10T02:40:28.726176","MEAN_MOTION":13.20618415,"ECCENTRICITY":0.0001922,"INCLINATION":87.9146,"RA_OF_ASC_NODE":282.0792,"ARG_OF_PERICENTER":91.2882,"MEAN_ANOMALY":268.8472,"EPHEMERIS_TYPE":0,"CLASSIFICATION_TYPE":"U","NORAD_CAT_ID":55800,"ELEMENT_SET_NO":999,"REV_AT_EPOCH":15611,"BSTAR":-0.00048448999999999996,"MEAN_MOTION_DOT":-1.84e-06,"MEAN_MOTION_DDOT":0.0},{"OBJECT_NAME":"ONEWEB-0564","OBJECT_ID":"2023-029F","EPOCH":"2026-05-10T04:20:13.820928","MEAN_MOTION":13.20701619,"ECCENTRICITY":0.0002298,"INCLINATION":87.9147,"RA_OF_ASC_NODE":282.0381,"ARG_OF_PERICENTER":103.1764,"MEAN_ANOMALY":256.9625,"EPHEMERIS_TYPE":0,"CLASSIFICATION_TYPE":"U","NORAD_CAT_ID":55801,"ELEMENT_SET_NO":999,"REV_AT_EPOCH":15613,"BSTAR":0.006011900000000001,"MEAN_MOTION_DOT":2.456e-05,"MEAN_MOTION_DDOT":0.0},{"OBJECT_NAME":"ONEWEB-0638","OBJECT_ID":"2023-029G","EPOCH":"2026-05-10T04:21:59.327424","MEAN_MOTION":13.14504302,"ECCENTRICITY":0.0002371,"INCLINATION":87.8921,"RA_OF_ASC_NODE":297.338,"ARG_OF_PERICENTER":93.3272,"MEAN_ANOMALY":266.8129,"EPHEMERIS_TYPE":0,"CLASSIFICATION_TYPE":"U","NORAD_CAT_ID":55802,"ELEMENT_SET_NO":999,"REV_AT_EPOCH":15440,"BSTAR":-0.00062218,"MEAN_MOTION_DOT":-2.18e-06,"MEAN_MOTION_DDOT":0.0},{"OBJECT_NAME":"ONEWEB-0639","OBJECT_ID":"2023-029H","EPOCH":"2026-05-10T04:47:03.558336","MEAN_MOTION":13.19724802,"ECCENTRICITY":0.0001729,"INCLINATION":87.9148,"RA_OF_ASC_NODE":312.5521,"ARG_OF_PERICENTER":57.355,"MEAN_ANOMALY":302.7749,"EPHEMERIS_TYPE":0,"CLASSIFICATION_TYPE":"U","NORAD_CAT_ID":55803,"ELEMENT_SET_NO":999,"REV_AT_EPOCH":15389,"BSTAR":-5.6571000000000004e-05,"MEAN_MOTION_DOT":-1e-07,"MEAN_MOTION_DDOT":0.0}]