ONEWEB-0709             
1 55172U 23004AJ  26130.20854400 -.00000482  00000+0 -13948-2 0  9996
2 55172  87.8919  28.6334 0001182  54.1268 305.9970 13.11418077160898
ONEWEB-0710             
1 55173U 23004AK  26130.15976316  .00000013  00000+0 -23061-7 0  9993
2 55173  87.9169  13.4256 0001803  87.3437 272.7901 13.17648379162576
ONEWEB-0711             
1 55174U 23004AL  26130.17973228  .00000357  00000+0  97221-3 0  9990
2 55174  87.8918  28.6257 0001939 102.7163 257.4182 13.11413013160854
ONEWEB-0713             
1 55175U 23004AM  26130.19836259 -.00000647  00000+0 -18604-2 0  9996
2 55175  87.8926  28.6228 0001830  92.6008 267.5329 13.11415592160845
ONEWEB-0715             
1 55176U 23004AN  26130.19327838 -.00000483  00000+0 -13987-2 0  9992
2 55176  87.8929  28.6242 0001112  75.3941 284.7310 13.11414760160883
ONEWEB-0716             
1 55177U 23004AP  26130.15301256 -.00000006  00000+0 -49455-4 0  9997
2 55177  87.9171  13.4289 0001960  75.6961 284.4388 13.17648713162576
ONEWEB-0717             
1 55178U 23004AQ  26130.21207399  .00000013  00000+0  40218-6 0  9994
2 55178  87.9181  13.4018 0001792 103.6209 256.5122 13.17649877162633
ONEWEB-0719             
1 55179U 23004AR  26130.14626266  .00000036  00000+0  58357-4 0  9991
2 55179  87.9181  13.3952 0002011  79.1873 280.9485 13.17648159162577
ONEWEB-0530             
1 55796U 23029A   26130.13612683  .00000673  00000+0  16207-2 0  9993
2 55796  87.9145 282.0627 0002098 107.9884 252.1478 13.20838460156120
ONEWEB-0534             
1 55797U 23029B   26130.12377435  .00000123  00000+0  26969-3 0  9993
2 55797  87.9149 282.0649 0001869  93.4993 266.6354 13.20730377156125
ONEWEB-0556             
1 55798U 23029C   26130.13024119 -.00000252  00000+0 -65348-3 0  9992
2 55798  87.9146 282.0645 0002704  90.5405 269.6038 13.20674219156128
ONEWEB-0562             
1 55799U 23029D   26130.11733317  .00000064  00000+0  12418-3 0  9997
2 55799  87.9146 282.0477 0002643 106.0096 254.1329 13.20782615156125
ONEWEB-0563             
1 55800U 23029E   26130.11144359 -.00000184  00000+0 -48449-3 0  9990
2 55800  87.9146 282.0792 0001922  91.2882 268.8472 13.20618415156111
ONEWEB-0564             
1 55801U 23029F   26130.18071552  .00002456  00000+0  60119-2 0  9991
2 55801  87.9147 282.0381 0002298 103.1764 256.9625 13.20701619156135
ONEWEB-0638             
1 55802U 23029G   26130.18193666 -.00000218  00000+0 -62218-3 0  9992
2 55802  87.8921 297.3380 0002371  93.3272 266.8129 13.14504302154409
ONEWEB-0639             
1 55803U 23029H   26130.19934674 -.00000010  00000+0 -56571-4 0  9992
2 55803  87.9148 312.5521 0001729  57.3550 302.7749 13.19724802153898
